POLYGON ((50 25.25, 49.5 25.25, 49.5 0.25, 44.75 0.25, 44.75 0, 43.25 0, 43.25 0.25, 33 0.25, 33 4, 30.25 4, 30.25 10, 30.25 10.25, 30 10.25, 22 10.25, 22 10, 30 10, 30 4, 30 0.25, 10.25 0.25, 10.25 10, 20 10, 20 10.25, 10.25 10.25, 10.25 20, 10 20, 10 10.25, 10 10, 10 0.25, 0.25 0.25, 0.25 5.25, 0 5.25, 0 6.45, 0.25 6.45, 0.25 30, 20 30, 20 30.25, 0.25 30.25, 0.25 39.5, 3.25 39.5, 3.25 40, 4.45 40, 4.45 39.5, 49.5 39.5, 49.5 30.25, 30 30.25, 30 30, 35 30, 35 20, 35.25 20, 35.25 30, 49.5 30, 49.5 26.45, 50 26.45, 50 25.25))
