POLYGON((-1.7705569279391427 -15.889280535121127, -1.7605474109799417 -16.283153329437038, -3.870124766318335 -16.278173391722213, -3.8705551825765525 -15.889280535121127, -25.175555182545644 -15.889280535121127, -25.175555182545644 15.770717262298666, 18.806633154101267 15.770717262298666, 18.818498865526234 16.283153329437038, 23.360538780413556 16.24632597877578, 23.344444817454345 15.770717262298666, 24.494441081252692 15.770717262298666, 24.494441081252692 4.340717990075474, 25.175555182545644 4.339077293227872, 25.149146705949065 2.2365529598637934, 24.494441081252692 2.240718173243535, 24.494441081252692 -15.889280535121127, -1.7705569279391427 -15.889280535121127), (-5.009556495001041 12.055217338327767, -5.009556495001041 11.985217338327756, -6.935556350399852 11.982348165698632, -6.935556350399852 12.720717262298622, -13.205555784525254 12.720717262298638, -13.205555784525254 12.890717262298647, -3.745555784525257 12.89071726229867, -3.745555784525257 12.720717262298622, -6.855556350399857 12.720717262298622, -6.855556350399857 12.055217338327767, -5.009556495001041 12.055217338327767), (19.36944143947595 -3.988999264983444, 16.734441533632953 -3.9889992649832338, 16.734441533632953 -5.539281168460586, 16.60944153363284 -5.539281168460574, 16.609441534218227 -3.988999263709245, 16.509441446474373 -3.988999263439304, 16.509441446474373 -3.838999263439304, 17.444441433433653 -3.838999263439304, 17.44444143343354 1.1637160366212966, 17.64444143343354 1.1637160366212966, 17.64444143343354 0.5657183247500669, 18.554434498144754 0.5657183247500669, 18.554434498144754 0.4057183247500561, 17.64444143343354 0.4057183247500561, 17.644441433433663 -2.4442814187739246, 18.554434498144754 -2.4442814187739246, 18.554434498144754 -2.6042814187739154, 17.644441433433663 -2.6042814187739154, 17.644441433433663 -3.838999264099995, 19.36944139573348 -3.8389992649834355, 19.36944143947595 -3.988999264983444), (11.15944198731727 -8.384280924973906, 10.984441987317265 -8.384280924973593, 10.984441987318373 -7.759280978135932, 2.8952856424259465 -7.759280978230784, 2.894442676725751 -6.168999523809283, 3.0944426767257456 -6.168999523809283, 3.0944426767257456 -7.6092809781801565, 7.259447287961845 -7.6092809781801565, 7.2594472880588485 -4.753999198840562, 4.079442575754254 -4.753999198840022, 4.0794425757543396 -3.9539992667485238, 3.0944426767262625 -3.9539992667485038, 3.0944426767257456 -4.938999523809294, 2.894442676725751 -4.938999523809294, 2.894442676725751 -3.788999276418285, 3.0044426767257475 -3.788999276418285, 3.0044426767257475 -3.838999276418285, 4.194442575754337 -3.838999266740062, 4.194442575754337 -4.638999198840047, 10.456941953107625 -4.638999198841104, 10.456941953107563 -4.753999198840596, 7.4594472880588425 -4.753999198840596, 7.459447287965256 -7.508743094176445, 14.364441695845134 -7.508743094410995, 14.364441695843444 -6.549281168460645, 14.664441695843445 -6.549281168460665, 14.664441695843445 -7.634280978230644, 15.339441648977967 -7.634280978230644, 15.339441648977967 -8.174280672734993, 15.214441648977967 -8.174280672734993, 15.214441648977967 -7.759280978230644, 11.159441987318363 -7.759280978136244, 11.15944198731727 -8.384280924973906), (11.686941953107574 -4.753999198841204, 11.686941953107574 -4.638999198841303, 14.364441695843444 -4.638999198841755, 14.364441695563183 -3.838999262918314, 15.279441446530964 -3.838999262597723, 15.279441446474376 -3.9889992632071327, 14.664441695843445 -3.9889992632071327, 14.664441695843445 -5.539281168460654, 14.364441695843444 -5.539281168460666, 14.361961750522468 -4.753999198841752, 11.686941953107574 -4.753999198841204), (16.609441533632438 -10.309280771956843, 16.47944159130518 -10.309280771956834, 16.47944159130518 -10.184280771956834, 16.609441533632257 -10.184280771956834, 16.60944153363267 -6.549281168461555, 16.73444153363267 -6.549281168461555, 16.73444153363267 -7.434280996340256, 18.63441849072403 -7.434280996340145, 18.63441849072403 -9.459280834445094, 18.50941849072403 -9.459280834445094, 18.50941849072403 -7.559280996340256, 16.734441533632257 -7.559280996340256, 16.734441533632374 -10.933998785962855, 21.444441092604855 -10.933998785963173, 21.44444108125269 -3.9889992655346433, 20.59944143950978 -3.988999265215624, 20.599441439532537 -3.838999265215925, 21.444441093264466 -3.838999265534646, 21.44444108135145 2.1907181710405963, 18.91444131389055 2.1907181710405963, 18.91444131389055 2.2407181710406077, 21.444440973753668 2.2407181710406077, 21.61444108125267 2.240718173243546, 21.61444108125267 -13.009280535121126, 16.609441533632374 -13.009280535121126, 16.609441533632374 -12.554280572008818, 16.734441533632374 -12.554280572008818, 16.734441533632374 -12.839280535120883, 21.44444108125269 -12.839280535120883, 21.44444108125269 -11.058998785963173, 16.734441533632374 -11.058998785963173, 16.734441533636154 -11.544280572007853, 16.609441533632033 -11.544280572007834, 16.609441533632438 -10.309280771956843), (4.810593839239923 12.720717262298582, 4.089567066442155 12.720717262298582, 4.089567066442166 4.273481011515277, 3.1080883614525505 4.273481011515277, 2.969442724563268 4.273481035985794, 2.9694426852462668 4.050718013407062, 2.919442685246267 4.050718013407062, 2.919442685246267 12.720717262298622, -1.7455557845252572 12.720717262295434, -1.7455557845253424 12.89071726229867, 21.61444108125267 12.89071726229867, 21.61444108125267 4.340717990075474, 18.91444131389055 4.340717990075474, 18.912802324801245 4.3940843318747635, 18.912802324801245 5.814084331874746, 21.44444108125269 5.814084331874666, 21.44444108125269 6.904933573157156, 18.281128045791327 6.904933573157156, 18.281128045791327 7.844933573157154, 19.221128045791325 7.844933573157154, 19.221128045791325 9.294933573157142, 21.44444108125269 9.294933573157142, 21.44444108125269 12.720717262298532, 20.310843941551123 12.720717262298532, 20.310843941551134 11.155657927930134, 18.59084394155103 11.155657927930134, 18.59084394155103 9.275657927930208, 17.40084394155115 9.275657927930208, 17.40084394155115 12.720717262298548, 16.873271993590954 12.720717262298548, 16.873271993590954 4.041789714445583, 15.176523058713267 4.041789714445583, 15.176523058713277 12.720717262298553, 14.108203538274413 12.720717262298553, 14.108203538274413 10.19518116706608, 12.294600166723743 10.19518116706608, 12.294600166723743 12.720717262298566, 11.72598091795317 12.720717262298566, 11.72598091795317 10.19518116706608, 9.912377546402363 10.19518116706608, 9.912377546402379 12.720717262298566, 9.31713252963975 12.720717262298566, 9.31713252963974 10.19518137071317, 7.5035291580890515 10.19518137071317, 7.503529158089057 12.720717262298576, 6.522351314152732 12.720717262298576, 6.522351314152732 4.0293676149813065, 4.81059383923994 4.0293676149813065, 4.810593839239923 12.720717262298582), (7.579442274010543 1.069716042310945, 7.579442274010543 1.3697420979365078, 14.189441710785527 1.3697420979365191, 14.189441710785527 1.069716042310945, 7.579442274010543 1.069716042310945), (-3.8705551825765525 -13.009280535121126, -22.295555182613835 -13.009280535121126, -22.295556021916234 -5.909280535121134, -12.630556003938654 -5.909279392606017, -12.630556003938654 -6.159281408887624, -22.130562352977254 -6.159281408887624, -22.125555182576054 -12.839280535121123, -3.9205551825765523 -12.839280535121123, -3.920556744808934 -10.359280767759024, -3.8705551825765525 -10.359280767759024, -3.8705551825765525 -13.009280535121126), (-1.7705568956176563 -10.359280800080533, -1.7205569279391426 -10.359280764891794, -1.7205551825765526 -12.839280535121123, 2.894442676725751 -12.839280535256353, 2.894442676725751 -9.109280859361615, 3.0044426767258727 -9.109280859361744, 3.0044426767257475 -9.159280859361614, 9.599442125914063 -9.159280859372846, 9.599442125914063 -9.493027264034895, 9.786946374488334 -9.493027264034895, 9.786946374488334 -9.618027264034895, 9.599442105430033 -9.618027265166724, 9.599442105430033 -9.834298765809136, 9.359442125907671 -9.834298765807615, 9.359442125865936 -9.296780846585365, 3.081942676725859 -9.296780846570742, 3.081942676725859 -12.839280547743943, 9.359442125888572 -12.839280547455854, 9.359442125901264 -10.844298765807595, 9.599442112832353 -10.844298765809144, 9.599442125901257 -13.009280535121126, -1.7705569279391427 -13.009280535121126, -1.7705569279391427 -12.839280535121123, -1.7705568956176563 -10.359280800080533), (-5.009556495001041 10.53021746826998, -5.009556495001041 10.460217468269976, -6.855556350399857 10.460217468270027, -6.855568689137831 -6.159281427222835, -9.730556003938663 -6.159281427222835, -9.730561086159636 -2.4592796715748433, -22.125555182538452 -2.4592796715299654, -22.125555182544453 -4.109280535121654, -22.295555182544334 -4.109280535121043, -22.295555182545645 12.89071726229867, -15.205555784525254 12.890717262298647, -15.205555784525254 12.720717262298656, -22.125555182483534 12.720717262298667, -22.125555182537553 -2.2093807213795613, -6.935556350399932 -2.2093807213795613, -6.935556350399932 10.530218880403408, -5.009556495001041 10.53021746826998), (-19.930498580508544 10.363619849961095, -19.930498580508544 10.588619617757718, -9.396498580508544 10.588619617757718, -9.396498580508544 10.363619849961095, -19.930498580508544 10.363619849961095), (-19.930498580508544 9.51361984996109, -19.930498580508544 9.738619617757703, -9.396498580508544 9.738619617757703, -9.396498580508544 9.51361984996109, -19.930498580508544 9.51361984996109), (-19.930498580508544 8.65699985170665, -19.930498580508544 8.881999619503258, -9.396498580508544 8.881999619503258, -9.396498580508544 8.65699985170665, -19.930498580508544 8.65699985170665), (-19.930498580508544 7.006000495427346, -19.930498580508544 7.231000263223957, -9.396498580508544 7.231000263223957, -9.396498580508544 7.006000495427346, -19.930498580508544 7.006000495427346), (-19.930498580508544 5.2993804971728835, -19.930498580508544 5.524380264969518, -9.396498580508544 5.524380264969518, -9.396498580508544 5.2993804971728835, -19.930498580508544 5.2993804971728835), (-19.930498580508544 3.563619849961067, -19.930498580508544 3.7886196177576847, -9.396498580508544 3.7886196177576847, -9.396498580508544 3.563619849961067, -19.930498580508544 3.563619849961067), (-19.930498580508544 1.8569998517066282, -19.930498580508544 2.0819996195032346, -9.396498580508544 2.0819996195032346, -9.396498580508544 1.8569998517066282, -19.930498580508544 1.8569998517066282), (-19.930498580508655 0.22988846011682681, -19.930498580508655 0.4548882279134361, -9.396498580508544 0.4548882279134361, -9.396498580508544 0.22988846011682681, -19.930498580508655 0.22988846011682681), (-19.930498580508655 7.810966847244499, -19.930498580508655 8.035966615041112, -9.396498580508544 8.035966615041112, -9.396498580508544 7.810966847244499, -19.930498580508655 7.810966847244499), (-19.930498580508544 6.153347492710738, -19.930498580508544 6.378347260507356, -9.396498580508544 6.378347260507356, -9.396498580508544 6.153347492710738, -19.930498580508544 6.153347492710738), (-19.930498580508544 4.446727494456276, -19.930498580508544 4.671727262252905, -9.396498580508544 4.671727262252905, -9.396498580508544 4.446727494456276, -19.930498580508544 4.446727494456276), (-19.930498580508544 2.710966847244477, -19.930498580508544 2.935966615041089, -9.396498580508544 2.935966615041089, -9.396498580508544 2.710966847244477, -19.930498580508544 2.710966847244477), (-19.930498580508544 1.0043468489900262, -19.930498580508544 1.2293466167866356, -9.396498580508544 1.2293466167866356, -9.396498580508544 1.0043468489900262, -19.930498580508544 1.0043468489900262), (7.503529147422157 9.113003605919278, 9.318276014938462 9.113003605919278, 9.318276014938462 3.7230036059192755, 7.503529147422157 3.7230036059192755, 7.503529147422157 9.113003605919278), (9.912377535735462 9.113003605919278, 11.72712440325184 9.113003605919278, 11.72712440325184 3.7230036059192755, 9.912377535735462 3.7230036059192755, 9.912377535735462 9.113003605919278), (12.294600156056728 9.113003402272188, 14.109347023573154 9.113003402272188, 14.109347023573154 3.723003402272185, 12.294600156056728 3.723003402272185, 12.294600156056728 9.113003402272188), (2.919442685246267 1.1657182599919778, 3.0944426767257456 1.1657182599919778, 3.0944426767257456 -2.8389993617474247, 2.894442676725751 -2.8389993617474247, 2.919442685246267 1.1657182599919778))