POLYGON ((1.69137 3.3282070000000004, 1.69137 -1.45765, 0.003175006 -1.45765, 0.003175006 -1.447803, 0.06270003 -1.447803, 0.06270003 0.469901, 0.01270003 0.469901, 0.01270003 0.5199010000000001, -0.06025 0.5199010000000001, -0.06025 0.54304, -3.277407 0.54304, -3.277407 1.384303, -3.302807 1.384303, -3.302807 1.428753, -3.352807 1.428753, -3.352807 1.4914530000000001, -3.441707 1.4914530000000001, -3.441707 1.428753, -3.491707 1.428753, -3.491707 0.3556007, -3.46332 0.3556007, -3.46332 0.343, -2.3360049999999997 0.343, -2.3360049999999997 0.3302007, -2.361405 0.3302007, -2.361405 -0.07620016, -2.3360049999999997 -0.07620016, -2.3360049999999997 -0.1206502, -2.236005 -0.1206502, -2.236005 0.3556007, -2.26223 0.3556007, -2.26223 0.419901, -2.16214 0.419901, -2.16214 0.393, -2.2121399999999998 0.393, -2.2121399999999998 0.3302007, -2.221704 0.3302007, -2.221704 -0.07620016, -2.2121399999999998 -0.07620016, -2.2121399999999998 -0.0833503, -2.232029 -0.0833503, -2.232029 -0.1833503, -2.197104 -0.1833503, -2.197104 -0.10717, -2.11214 -0.10717, -2.11214 0.2802007, -0.1770003 0.2802007, -0.1770003 -1.397803, -0.3512967 -1.397803, -0.3512967 -0.9398019, -0.4012967 -0.9398019, -0.4012967 -0.9136017000000001, -0.4012967 -0.8898018999999999, -0.4012967 -0.8636017, -0.4012967 -0.8382017, -0.4012967 -0.8136017, -1.010898 -0.8136017, -1.010898 -0.8382017, -1.010898 -0.8636017, -1.010898 -0.8898018999999999, -1.010898 -0.9136017000000001, -1.010898 -0.9398019, -1.0608980000000001 -0.9398019, -1.0608980000000001 -1.397803, -2.1217040000000003 -1.397803, -2.1217040000000003 -0.8509017, -2.147104 -0.8509017, -2.147104 -0.8064516, -2.197104 -0.8064516, -2.197104 -0.7437516, -2.232029 -0.7437516, -2.232029 -0.8064516, -2.2471039999999998 -0.8064516, -2.2471039999999998 -0.80741, -2.31223 -0.80741, -2.31223 -0.8509017, -2.361405 -0.8509017, -2.361405 -1.447803, -2.31223 -1.447803, -2.31223 -1.50765, -4.21404 -1.50765, -4.26404 -1.50765, -4.314039999999999 -1.50765, -5.6653 -1.50765, -5.6653 -1.60769, -5.56521 -1.60769, -5.56521 -1.65769, 1.04074 -1.65769, 1.04074 -4.60872, 1.058077 -4.60872, 1.058077 -4.610109, 1.082677 -4.610109, 1.108077 -4.610109, 1.108077 -4.660108999999999, 1.184277 -4.660108999999999, 1.717678 -4.660108999999999, 2.174879 -4.660108999999999, 2.174879 -4.635509, 2.174879 -4.610109, 2.2248789999999996 -4.610109, 2.2248789999999996 -4.533909, 2.2248789999999996 -4.076708, 2.2248789999999996 -4.000508, 2.174879 -4.000508, 2.174879 -3.975108, 2.174879 -3.950508, 1.7913700000000001 -3.950508, 1.7913700000000001 -1.65769, 2.3920000000000003 -1.65769, 2.3920000000000003 -2.70807, 2.442 -2.70807, 2.442 -2.75807, 4.779185 -2.75807, 4.779185 -3.9702520000000003, 2.797181 -3.9702520000000003, 2.797181 -3.994852, 2.797181 -4.020252, 2.7471810000000003 -4.020252, 2.7471810000000003 -4.096452, 2.7471810000000003 -4.553653, 2.7471810000000003 -4.629854, 2.797181 -4.629854, 2.797181 -4.655253, 2.797181 -4.679854, 4.854585 -4.679854, 4.854585 -4.6982099999999996, 4.943485 -4.6982099999999996, 4.943485 -4.60872, 4.99425 -4.60872, 4.99425 -2.70807, 4.99425 -2.647955, 5.018885 -2.647955, 5.018885 -1.130302, 4.99425 -1.130302, 4.99425 -1.10752, 4.943485 -1.10752, 4.943485 -1.023152, 4.88951 -1.023152, 4.88951 -1.085852, 4.804585 -1.085852, 4.804585 -1.130302, 4.779185 -1.130302, 4.779185 -2.528105, 2.577305 -2.528105, 2.577305 -1.447803, 2.527305 -1.447803, 2.527305 -1.397803, 1.8914600000000001 -1.397803, 1.8914600000000001 0.343, 4.804585 0.343, 4.804585 0.3302007, 4.779185 0.3302007, 4.779185 -0.2032004, 4.804585 -0.2032004, 4.804585 -0.2476505, 4.89426 -0.2476505, 4.89426 -0.2571755, 4.804585 -0.2571755, 4.804585 -0.2603505, 4.84416 -0.2603505, 4.84416 -0.35724, 4.94425 -0.35724, 4.94425 -0.30724, 4.99426 -0.30724, 4.99426 -0.2072, 4.99426 -0.2032004, 5.018885 -0.2032004, 5.018885 1.025527, 5.018885 1.028702, 5.018885 1.082677, 4.99426 1.082677, 4.99426 1.09324, 4.94426 1.09324, 4.94426 1.14324, 4.84417 1.14324, 4.84417 1.09324, 4.79417 1.09324, 4.79417 1.082677, 4.779185 1.082677, 4.779185 1.028702, 4.779185 1.025527, 4.779185 0.5199010000000001, 1.8914600000000001 0.5199010000000001, 1.8914600000000001 3.3282070000000004, 4.779185 3.3282070000000004, 4.779185 1.958979, 4.779185 1.955804, 4.779185 1.901829, 4.879185 1.901829, 4.879185 1.911354, 4.88951 1.911354, 4.88951 1.848654, 4.943485 1.848654, 4.943485 1.901829, 5.018885 1.901829, 5.018885 1.955804, 5.018885 1.958979, 5.018885 3.3282070000000004, 6.591313 3.3282070000000004, 6.591313 3.34404, 6.59578 3.34404, 6.59578 -2.597155, 6.566714 -2.597155, 6.566714 -3.003556, 6.566714 -4.476759, 6.566714 -4.82601, 6.616714 -4.82601, 6.616714 -4.87601, 6.711964 -4.87601, 6.711964 -4.77601, 6.666714 -4.77601, 6.666714 -4.73711, 6.755614 -4.73711, 6.755614 -4.476759, 6.755614 -3.003556, 6.755614 -2.7678059999999998, 10.39973 -2.7678059999999998, 14.39548 -2.7678059999999998, 17.705790999999998 -2.7678059999999998, 17.705790999999998 -4.80879, 17.705790999999998 -5.90917, 17.705790999999998 -5.94892, 17.705790999999998 -6.20928, 17.705790999999998 -6.24584, 17.705790999999998 -9.01708, 17.705790999999998 -9.314, 17.705790999999998 -9.941745, 14.489930000000001 -9.941745, 14.489930000000001 -4.82601, 14.40273 -4.82601, 14.40273 -4.80879, 14.302729999999999 -4.80879, 14.302729999999999 -4.82601, 14.301029999999999 -4.82601, 14.301029999999999 -10.0362, 14.301029999999999 -10.08065, 14.39548 -10.08065, 14.39548 -10.130650000000001, 16.43131 -10.130650000000001, 16.43131 -10.44708, 16.43131 -10.77728, 16.53131 -10.77728, 16.53131 -10.44708, 16.53131 -10.130650000000001, 17.705790999999998 -10.130650000000001, 17.705790999999998 -11.29346, 17.705790999999998 -11.383199999999999, 17.68479 -11.383199999999999, 17.68479 -11.4832, 17.71019 -11.4832, 17.71019 -11.41107, 17.755791 -11.41107, 17.755791 -12.33216, 17.755791 -12.36347, 17.71019 -12.36347, 17.71019 -12.303949999999999, 17.68479 -12.303949999999999, 17.68479 -12.36347, 17.66019 -12.36347, 17.66019 -12.43113, 17.255341 -12.43113, 17.255341 -12.51145, 17.20535 -12.51145, 17.20535 -12.58011, 17.205341 -12.58011, 17.205341 -12.67908, 17.25535 -12.67908, 17.25535 -12.76152, 17.35544 -12.76152, 17.35544 -12.68098, 17.38634 -12.68098, 17.38634 -12.7405, 17.41174 -12.7405, 17.41174 -12.68335, 17.41174 -12.68098, 17.43634 -12.68098, 17.43634 -12.648430000000001, 17.666539999999998 -12.648430000000001, 17.666539999999998 -13.29773, 17.43634 -13.29773, 17.43634 -13.26518, 17.41174 -13.26518, 17.41174 -13.262799999999999, 17.41174 -13.205649999999999, 17.38634 -13.205649999999999, 17.38634 -13.26518, 17.33634 -13.26518, 17.33634 -13.37313, 17.38634 -13.37313, 17.38634 -13.42086, 17.255341 -13.42086, 17.255341 -13.41176, 17.30535 -13.41176, 17.30535 -13.31173, 17.30535 -13.302480000000001, 17.33236 -13.302480000000001, 17.33236 -13.20248, 17.29744 -13.20248, 17.29744 -13.21169, 17.20535 -13.21169, 17.20535 -13.31173, 17.20535 -13.32189, 16.95507 -13.32189, 16.85498 -13.32189, 16.85498 -13.421890000000001, 16.95507 -13.421890000000001, 16.95507 -13.437429999999999, 16.95453 -13.437429999999999, 16.90056 -13.437429999999999, 16.90056 -13.53743, 16.95453 -13.53743, 16.95771 -13.53743, 17.666539999999998 -13.53743, 17.666539999999998 -17.05694, 15.57639 -17.05694, 15.46645 -17.05694, 15.46645 -17.08234, 15.40362 -17.08234, 15.40362 -13.512030000000001, 15.41783 -13.512030000000001, 15.41783 -13.53743, 16.02743 -13.53743, 16.02743 -13.512030000000001, 16.07188 -13.512030000000001, 16.07188 -13.41203, 16.05426 -13.41203, 16.05426 -13.41176, 16.05426 -13.361759999999999, 16.05426 -13.31173, 15.95417 -13.31173, 15.95417 -13.361759999999999, 15.35363 -13.361759999999999, 15.35363 -13.46176, 15.39243 -13.46176, 15.39243 -13.47086, 15.328130000000002 -13.47086, 15.328130000000002 -13.43663, 15.30353 -13.43663, 15.30353 -13.37189, 15.203529999999999 -13.37189, 15.203529999999999 -17.05694, 15.19876 -17.05694, 15.19876 -17.08234, 15.15431 -17.08234, 15.15431 -17.13234, 15.09161 -17.13234, 15.09161 -17.28791, 15.15431 -17.28791, 15.15431 -17.37284, 15.25353 -17.37284, 15.25353 -17.6767, 12.15074 -17.6767, 8.04704 -17.6767, 8.04704 -17.71734, 6.666714 -17.71734, 6.666714 -17.30379, 6.64578 -17.30379, 6.64578 -17.28791, 6.733388 -17.28791, 6.733388 -17.13234, 6.670689 -17.13234, 6.670689 -17.08234, 6.626238 -17.08234, 6.626238 -17.05694, 6.521463 -17.05694, 4.504534 -17.05694, 4.504534 -12.66149, 5.64488 -12.66149, 5.64488 -12.61149, 5.69489 -12.61149, 5.69489 -12.51145, 5.6948799999999995 -12.51145, 5.6948799999999995 -12.41142, 5.613411 -12.41142, 5.613411 -12.408719999999999, 5.559436 -12.408719999999999, 5.556261 -12.408719999999999, 4.384684 -12.408719999999999, 4.384684 -12.46145, 4.364834 -12.46145, 4.364834 -12.45872, 4.2648340000000005 -12.45872, 4.2648340000000005 -14.21213, 3.940183 -14.21213, 3.940183 -14.25451, 3.905258 -14.25451, 3.905258 -14.26207, 3.84326 -14.26207, 3.84326 -14.3415, 3.8330330000000004 -14.3415, 3.8330330000000004 -14.37643, 3.886208 -14.37643, 3.886208 -14.451830000000001, 3.940183 -14.451830000000001, 3.943358 -14.451830000000001, 4.2648340000000005 -14.451830000000001, 4.2648340000000005 -17.13234, 4.29371 -17.13234, 4.29371 -17.21307, 3.99335 -17.21307, 3.94335 -17.21307, 3.8933500000000003 -17.21307, 2.492 -17.21307, 2.492 -17.113041, 2.46063 -17.113041, 2.46063 -17.08234, 2.3919099999999998 -17.08234, 2.3919099999999998 -14.42643, 2.400305 -14.42643, 2.400305 -14.451830000000001, 2.911481 -14.451830000000001, 2.911481 -14.37643, 2.918631 -14.37643, 2.9456059999999997 -14.37643, 3.0186309999999996 -14.37643, 3.0186309999999996 -14.3415, 2.9456059999999997 -14.3415, 2.9456059999999997 -14.32563, 2.908306 -14.32563, 2.908306 -14.312130000000002, 2.911481 -14.312130000000002, 2.911481 -14.26213, 2.955931 -14.26213, 2.955931 -14.25451, 2.911481 -14.25451, 2.911481 -14.21213, 2.400305 -14.21213, 2.400305 -14.23753, 2.3919099999999998 -14.23753, 2.3919099999999998 -13.72475, 2.400305 -13.72475, 2.400305 -13.624749999999999, 2.374905 -13.624749999999999, 2.374905 -13.62158, 2.286005 -13.62158, 2.286005 -13.68428, 2.236005 -13.68428, 2.236005 -13.72873, 2.210605 -13.72873, 2.210605 -17.05694, -3.867158 -17.05694, -3.924308 -17.05694, -5.91557 -17.05694, -5.91557 -13.5118, -5.96557 -13.5118, -5.96557 -12.51145, -5.96557 -12.50318, -5.931712 -12.50318, -5.931712 -9.587720000000001, -4.186711 -9.587720000000001, -4.186711 -10.12192, -4.186458 -10.12192, -4.186458 -10.73152, -4.186458 -11.34112, -4.186458 -11.9591, -4.16395 -11.9591, -4.16395 -12.61149, -3.999573 -12.61149, -3.999573 -13.25475, -3.603134 -13.25475, -3.603134 -13.73844, -3.11944 -13.73844, -3.11944 -14.19724, -2.324791 -14.19724, -2.317985 -14.19724, -2.317985 -14.22183, -1.602371 -14.22183, -1.602371 -14.21204, -0.86097 -14.21204, -0.86097 -14.19724, -0.8286703 -14.19724, -0.8286703 -13.99082, -0.05194052 -13.99082, -0.05194052 -13.54237, 0.3223713 -13.54237, 0.3223713 -13.5118, 0.3401 -13.5118, 0.3401 -12.89405, 0.4787758 -12.89405, 0.4787758 -12.31138, 0.4902 -12.31138, 0.4902 -12.30699, 0.5033758 -12.30699, 0.5033758 -11.24295, 0.8089765 -11.24295, 0.8089765 -11.19295, 0.8351767 -11.19295, 0.8589765 -11.19295, 0.8851767 -11.19295, 0.9105767 -11.19295, 0.9351767000000001 -11.19295, 0.9351767000000001 -10.65955, 0.9105767 -10.65955, 0.8851767 -10.65955, 0.8589765 -10.65955, 0.84055 -10.65955, 0.84055 -10.560799999999999, -0.06026 -10.560799999999999, -0.06026 -10.609549999999999, -0.0800253 -10.609549999999999, -0.08002533 -10.609549999999999, -0.1562255 -10.609549999999999, -0.1562255 -10.65955, -0.1816255 -10.65955, -0.2062255 -10.65955, -0.2062255 -11.19295, -0.2062255 -11.211, -0.21035 -11.211, -0.21035 -12.22339, -0.2930247 -12.22339, -0.2930247 -12.61149, -0.56071 -12.61149, -0.56071 -13.05893, -1.083576 -13.05893, -1.083576 -13.37542, -1.685971 -13.37542, -1.685971 -13.512229999999999, -2.147837 -13.512229999999999, -2.147837 -13.20999, -2.713944 -13.20999, -2.713944 -12.84925, -2.76269 -12.84925, -2.76269 -12.81155, -3.06296 -12.81155, -3.06296 -12.31138, -3.36323 -12.31138, -3.36323 -11.91124, -3.384177 -11.91124, -3.384177 -11.8755, -3.4768570000000003 -11.8755, -3.4768570000000003 -11.34112, -3.4768570000000003 -10.73152, -3.4768570000000003 -10.12192, -3.477109 -10.12192, -3.477109 -9.587720000000001, -0.2062255 -9.587720000000001, -0.2062255 -10.12192, -0.1816255 -10.12192, -0.1562255 -10.12192, -0.1562255 -10.17192, -0.08002533 -10.17192, -0.0800253 -10.17192, 0.7708764 -10.17192, 0.8470765 -10.17192, 0.8470765 -10.12192, 0.8724766 -10.12192, 0.8970765 -10.12192, 0.8970765 -9.587720000000001, 1.266828 -9.587720000000001, 1.266828 -9.53772, 1.316828 -9.53772, 1.316828 -8.037954, 1.24091 -8.037954, 1.24091 -7.70979, 1.14082 -7.70979, 1.14082 -8.095819, 1.077127 -8.095819, 1.077127 -9.348018999999999, -5.931712 -9.348018999999999, -5.931712 -8.623318, -5.96557 -8.623318, -5.96557 -8.6101, -5.96557 -8.560099999999998, -5.96557 -7.639065, -5.957112 -7.639065, -5.957112 -7.594615, -5.931712 -7.594615, -5.931712 -6.730213, -5.921387 -6.730213, -5.921387 -6.755614, -5.864237 -6.755614, -5.864237 -6.655614, -5.86548 -6.655614, -5.86548 -6.615913, -5.864237 -6.615913, -5.864237 -6.515913, -5.91557 -6.515913, -5.91557 -3.50834, -5.931712 -3.50834, -5.931712 -3.467107, -5.96557 -3.467107, -5.96557 -2.2079, -6.26584 -2.2079, -6.26584 -3.417107, -9.79252 -3.417107, -9.79252 -1.666878, -9.79252 -1.663703, -9.79252 -1.609728, -9.81909 -1.609728, -9.81909 -1.60769, -9.902845 -1.60769, -9.902845 -1.5565529999999999, -9.95682 -1.5565529999999999, -9.95682 -1.609728, -10.032221 -1.609728, -10.032221 -1.663703, -10.032221 -1.666878, -10.032221 -3.587757, -10.032221 -4.280709, -10.71565 -4.280709, -10.71882 -4.280709, -10.7728 -4.280709, -10.7728 -4.356109, -10.82597 -4.356109, -10.82597 -4.391034, -10.76327 -4.391034, -10.76327 -4.395009, -10.76327 -4.406109, -10.76327 -4.420409, -10.7728 -4.420409, -10.7728 -4.445009, -10.8228 -4.445009, -10.8228 -4.470409, -10.7728 -4.470409, -10.7728 -4.520409, -10.71565 -4.520409, -10.71565 -4.495009, -10.032221 -4.495009, -10.032221 -6.849289, -12.20552 -6.849289, -12.20552 -4.520409, -11.6491 -4.520409, -11.64592 -4.520409, -11.59195 -4.520409, -11.59195 -4.470409, -11.54195 -4.470409, -11.54195 -4.445009, -11.59195 -4.445009, -11.59195 -4.420409, -11.60147 -4.420409, -11.60147 -4.406109, -11.60147 -4.395009, -11.60147 -4.391034, -11.53877 -4.391034, -11.53877 -4.356109, -11.59195 -4.356109, -11.59195 -4.280709, -11.64592 -4.280709, -11.6491 -4.280709, -12.20552 -4.280709, -12.20552 0.6199262999999999, -10.032221 0.6199262999999999, -10.032221 -0.7334265, -10.032221 -0.7366015, -10.032221 -0.7905766, -9.95682 -0.7905766, -9.95682 -0.8437516, -9.902845 -0.8437516, -9.902845 -0.80741, -9.81909 -0.80741, -9.81909 -0.7905765, -9.79252 -0.7905765, -9.79252 -0.7366015, -9.79252 -0.7334264, -9.79252 0.6199262999999999, -5.365761 0.6199262999999999, -4.66091 0.6199262999999999, -4.66091 0.6699263, -4.6109100000000005 0.6699263, -4.6109100000000005 1.416053, -4.6109100000000005 1.419228, -4.6109100000000005 1.473203, -4.686309 1.473203, -4.686309 1.526378, -4.721235 1.526378, -4.721235 1.463678, -4.725210000000001 1.463678, -4.736308999999999 1.463678, -4.75061 1.463678, -4.75061 1.473203, -4.85061 1.473203, -4.85061 1.419228, -4.85061 1.416053, -4.85061 0.8596266, -5.195111 0.8596266, -5.195111 3.3282070000000004, -4.85061 3.3282070000000004, -4.85061 2.959106, -4.85061 2.955931, -4.85061 2.901956, -4.75061 2.901956, -4.75061 2.911481, -4.736308999999999 2.911481, -4.725210000000001 2.911481, -4.721235 2.911481, -4.721235 2.8487810000000002, -4.686309 2.8487810000000002, -4.686309 2.901956, -4.6109100000000005 2.901956, -4.6109100000000005 2.955931, -4.6109100000000005 2.959106, -4.6109100000000005 3.3282070000000004, -3.5171069999999998 3.3282070000000004, -3.5171069999999998 2.311405, -3.491707 2.311405, -3.491707 2.266955, -3.441707 2.266955, -3.441707 2.2042550000000003, -3.352807 2.2042550000000003, -3.352807 2.266955, -3.302807 2.266955, -3.302807 2.311405, -3.277407 2.311405, -3.277407 3.3282070000000004, 1.69137 3.3282070000000004), (-5.307811 -7.137414, -5.26494 -7.137414, -5.26494 -7.40969, 0.74047 -7.40969, 0.74047 -7.00955, 0.2519874 -7.00955, 0.2519874 -6.973114, -5.09351 -6.973114, -5.09351 -6.565913, -5.14351 -6.565913, -5.14351 -6.515913, -5.267336 -6.515913, -5.270511 -6.515913, -5.324486 -6.515913, -5.324486 -6.591313, -5.377661 -6.591313, -5.377661 -6.680213, -5.324486 -6.680213, -5.324486 -6.755614, -5.307811 -6.755614, -5.307811 -7.137414), (2.374905 -12.905600000000002, 2.400305 -12.905600000000002, 2.400305 -12.848450000000001, 2.400305 -12.8056, 2.400305 -12.74845, 2.3919099999999998 -12.74845, 2.3919099999999998 -12.49683, 2.400305 -12.49683, 2.400305 -12.572230000000001, 2.847319 -12.572230000000001, 2.847319 -12.5127, 3.432182 -12.5127, 3.432182 -12.51145, 3.4429 -12.51145, 3.4429 -12.21135, 3.4429 -12.17906, 3.491707 -12.17906, 3.491707 -11.91351, 3.4429 -11.91351, 3.4429 -11.91124, 3.441707 -11.91124, 3.441707 -11.86351, 3.302007 -11.86351, 3.302007 -11.91351, 3.2520070000000003 -11.91351, 3.2520070000000003 -12.0984, 3.277407 -12.0984, 3.277407 -12.1039, 2.812439 -12.1039, 2.812439 -12.35793, 2.809886 -12.35793, 2.809886 -12.332529999999998, 2.805906 -12.332529999999998, 2.805906 -12.33173, 2.805906 -12.15392, 2.755906 -12.15392, 2.755906 -12.12772, 2.755906 -12.103919999999999, 2.755906 -12.07772, 2.755906 -12.05232, 2.755906 -12.027719999999999, 2.3919099999999998 -12.027719999999999, 2.3919099999999998 -11.561110000000001, 3.94335 -11.561110000000001, 3.94335 -11.51111, 3.99335 -11.51111, 3.99335 -11.49987, 4.013612 -11.49987, 4.013612 -11.43002, 3.99335 -11.43002, 3.99335 -11.41107, 3.963612 -11.41107, 3.963612 -11.38002, 3.94335 -11.38002, 3.94335 -11.36107, 2.24182 -11.36107, 2.24182 -11.43002, 2.210605 -11.43002, 2.210605 -12.80163, 2.236005 -12.80163, 2.236005 -12.84608, 2.286005 -12.84608, 2.286005 -12.90878, 2.374905 -12.90878, 2.374905 -12.905600000000002), (14.75308 -12.48413, 14.659799999999999 -12.48413, 14.659799999999999 -12.57303, 14.7225 -12.57303, 14.7225 -12.62303, 14.76696 -12.62303, 14.76696 -12.648430000000001, 14.82604 -12.648430000000001, 14.82604 -12.62303, 14.82604 -12.54843, 14.82604 -12.531130000000001, 14.95326 -12.531130000000001, 14.95326 -12.54843, 14.92869 -12.54843, 14.92869 -12.648430000000001, 16.05918 -12.648430000000001, 16.06236 -12.648430000000001, 16.11633 -12.648430000000001, 16.11633 -12.63011, 16.15435 -12.63011, 16.15435 -12.57303, 16.16951 -12.57303, 16.16951 -12.48413, 16.15435 -12.48413, 16.15435 -12.43113, 16.11633 -12.43113, 16.11633 -12.408719999999999, 16.05918 -12.408719999999999, 16.05918 -12.43113, 14.85317 -12.43113, 14.85317 -12.38216, 14.75308 -12.38216, 14.75308 -12.43113, 14.75308 -12.48113, 14.75308 -12.48413), (14.35272 -11.68935, 14.95326 -11.68935, 14.95326 -10.4027, 14.35272 -10.4027, 14.35272 -11.68935), (6.74587 -6.0272, 8.04704 -6.0272, 8.04704 -4.80879, 6.74587 -4.80879, 6.74587 -6.0272), (14.35272 -4.76124, 14.95326 -4.76124, 14.95326 -3.37562, 14.35272 -3.37562, 14.35272 -4.76124))
