POLYGON ((10.972475081003967 -7.384219040881134, 10.972475081003967 7.384219040881134, -10.972475081003967 7.384219040881134, -10.972475081003967 -7.384219040881134, 10.972475081003967 -7.384219040881134), (-2.929648970901537 -3.688366359783876, -5.062097774156159 -2.596057449109656, -4.450206333835513 0.3289245801002774, -1.6216747993074243 -0.1421560536651847, -2.4733680237475006 -3.3276829750405286, -2.929648970901537 -3.688366359783876), (-5.717325577778075 2.751366885996757, -6.63945165421938 4.453927718483021, -5.301365916455405 4.735273912098402, -5.0451325834396465 4.323578386816106, -5.717325577778075 2.751366885996757), (3.9622437981226892 1.0964928763328017, 3.4310045181468047 1.1276697165460912, 1.8298831405785347 2.0621430596434998, 2.5573304559824415 3.7756033124937094, 3.184210917161727 3.920508767459454, 4.612195210431218 2.8061783796069895, 4.316201960934816 1.402749096045167, 3.9622437981226892 1.0964928763328017), (8.017064901131436 2.112131635754565, 6.249023896173664 3.4420283898006327, 7.096939459080603 3.8713569407249295, 7.2213321451429575 3.8641294063118035, 8.05942737166536 3.5202360802688837, 8.284605068633251 3.3699481606207207, 8.213927112958839 2.7532651238113157, 8.017064901131436 2.112131635754565), (0.4227766444952978 -3.8535205739661818, 1.519586517102744 -2.7079966333634715, 2.019963941396 -2.2838495590017773, 3.7759525269871617 -3.7970977167245485, 0.4227766444952978 -3.8535205739661818))