POLYGON ((37.35970608803214 -25.15864832361465, 37.35970608803214 25.15864832361465, -37.35970608803214 25.15864832361465, -37.35970608803214 -25.15864832361465, 37.35970608803214 -25.15864832361465), (22.331071043368286 -20.877116859175892, 21.53898946405021 -19.43051161957329, 22.1844433461812 -17.606827834177945, 23.5183765258364 -18.023088386582415, 25.022470683455463 -19.86004292543278, 24.274052604422792 -20.424022465294787, 22.331071043368286 -20.877116859175892), (4.38961576598954 2.5087100678594974, 4.126507962884295 2.600040371386953, 3.3472603675900032 3.6597143145417075, 3.86428102530655 4.731654330630226, 5.494856702332772 4.1836556129517515, 4.38961576598954 2.5087100678594974), (13.679117234882783 11.631862339721431, 13.162015792522539 12.897176690072413, 13.635431610259365 14.372263700980106, 15.737480529490702 11.989601563206913, 13.679117234882783 11.631862339721431), (19.62559186164712 -4.5008284797431575, 18.34623507257961 -3.866782182546165, 17.82079683911343 -2.898964318764442, 20.17251262402926 -1.3154504459489733, 19.62559186164712 -4.5008284797431575), (22.26352235839635 16.307553108093565, 20.65437180677571 16.412914968400557, 21.742496203442492 21.075475533217205, 23.655844767705926 17.067734426976394, 23.392117806582004 16.830358934178847, 22.26352235839635 16.307553108093565), (12.742982318451851 17.20719369396282, 11.76329215763334 19.242375818528377, 12.42336387954852 19.63297807899139, 14.265995533398744 18.69892186897348, 12.742982318451851 17.20719369396282), (25.67830187915775 -7.056642706331248, 25.747123706832483 -4.33233928180989, 25.904433094018152 -3.9919974081315477, 26.236468907772952 -3.9849414731933335, 29.852011051355852 -6.7059708100689095, 25.67830187915775 -7.056642706331248), (-0.3237682481212911 -22.28505808504687, -4.081103679200709 -19.530120037352244, -2.7735123509743023 -18.708315553339833, 0.1634473354323918 -20.996647476540684, -0.3237682481212911 -22.28505808504687), (27.23669107882337 17.019177135510844, 25.932195740768293 18.348143557888573, 26.47174345366516 20.578764910616812, 28.2138333798577 21.296817556882583, 29.29994374727976 20.186867981107678, 28.887768123339256 17.210994329933047, 27.23669107882337 17.019177135510844), (8.249143494669198 3.6931868088929543, 7.3943792949993306 3.7928009187281413, 6.622024839504162 5.034381040856575, 6.488922877875359 5.4791254033886165, 7.6288506558004885 5.997728499023042, 8.375040665289378 6.171658672518882, 8.249143494669198 3.6931868088929543), (-28.831450267047728 -14.975300690220823, -32.55343757790119 -14.68864973600239, -30.506135266868938 -12.527425567389452, -30.236063509537768 -12.372046694603629, -28.648454984328808 -13.451943824587737, -28.831450267047728 -14.975300690220823), (-23.483544226378342 4.8841724966930515, -24.664191220588584 5.670932313547672, -24.967277844903094 7.074166603571426, -24.717062859262885 7.218948552443563, -23.086282013967676 7.606807953679542, -22.202384975144422 6.859703373531913, -23.483544226378342 4.8841724966930515), (27.292673615759472 -0.4907413006978845, 26.353227675512475 -0.1482195477305622, 26.106763078768953 1.1751747485029636, 26.55375800186419 1.2656857063142288, 29.014077039141856 0.520042113279442, 27.64657986550813 -0.4315495058697434, 27.292673615759472 -0.4907413006978845), (28.16650997766252 -21.559393702610315, 26.380873993529264 -21.344941347506783, 26.106267907695162 -21.27060444371546, 26.665911241192134 -19.39736374950917, 27.7137599333542 -19.61317193122375, 28.379206223143882 -20.084196133739084, 28.16650997766252 -21.559393702610315), (19.64800692643669 -18.098803234135246, 19.15072377456133 -17.97770582740071, 18.589045758735793 -15.80575396865089, 20.492628439470437 -17.477283170966516, 20.51135287942032 -17.573328466058545, 19.64800692643669 -18.098803234135246), (-19.464891817722897 -21.82275933833961, -20.08508332854547 -21.466231474794167, -17.83666007900273 -18.449167398931454, -17.495388023182855 -20.37305668684209, -19.464891817722897 -21.82275933833961), (-13.26683035459746 -22.56912433815074, -14.154229063852613 -21.858635267436174, -11.65115605269322 -19.377295071176228, -10.920443621050033 -20.779080768187686, -12.21502111340284 -22.09353597801173, -13.26683035459746 -22.56912433815074), (4.469610841932906 -13.048582475838582, 4.087046889276415 -12.089340853790535, 6.922011508194595 -11.635211077246957, 7.1461290384763 -12.113979020521736, 6.9841079013779614 -12.503118345127382, 4.469610841932906 -13.048582475838582), (-18.715823214694666 -17.328060963390108, -20.698288995596634 -14.907333425381166, -17.08225378118934 -16.50725886622231, -17.344662812472848 -16.8009348249703, -18.715823214694666 -17.328060963390108), (29.422873401179597 -12.587753202890237, 28.893582152382976 -11.984470916157735, 28.87877376644616 -10.282538448611117, 29.832204036307594 -9.159766813146451, 29.422873401179597 -12.587753202890237), (11.737496556831134 -18.611605155616093, 12.735778397740143 -14.743543335100348, 13.53009989723248 -14.986988347486978, 14.313875467669915 -15.752468732683143, 13.543543763516913 -18.59825421832924, 11.737496556831134 -18.611605155616093), (0.3520651692880728 15.496868072687501, 0.1702115963142294 15.517115877259577, -1.5896377077518937 18.488261810288733, 2.7316572373647348 19.35495243605526, 0.9796099470008834 16.07245859062312, 0.3520651692880728 15.496868072687501), (-15.78834270337807 11.953173152837735, -17.73224601112357 13.656009749721546, -17.54262191642412 14.773069796383211, -15.641829221188727 14.833731186785021, -15.677771795764876 12.652885829725468, -15.78834270337807 11.953173152837735), (7.699397976411124 17.424191658802, 5.898513933577595 17.907180317032736, 6.2408178373005345 19.68041008574161, 8.05385385440406 19.440499204198066, 7.925171582950146 17.71436793480995, 7.699397976411124 17.424191658802), (-27.007324822388334 -4.627041756952208, -28.789252398834904 -3.1681726719844883, -28.584663384871064 -1.5434770357134318, -27.462350436230228 0.2341307197206763, -24.660577227456294 -1.209421007052558, -25.003687332673614 -3.4632496898466796, -27.007324822388334 -4.627041756952208), (-18.00945221974932 -0.5479801237471167, -21.553848794358647 1.4945944501517783, -17.631389682805757 3.149789062696563, -17.271272894327108 2.611082325258178, -16.87413142559982 1.796960885930761, -17.062148301759766 -0.2228508602135395, -18.00945221974932 -0.5479801237471167), (-7.710806698256151 -3.2466200737437716, -9.124258956701302 -2.4355137270389426, -8.061594476828734 -1.4136845504291866, -7.067181081466539 -1.9280255655800407, -7.710806698256151 -3.2466200737437716), (-16.184935482382848 17.572445648040084, -17.28865317078324 18.890234165387934, -16.56587384495535 19.64808668081619, -15.135178374170664 18.26569269986448, -16.184935482382848 17.572445648040084), (16.544720312721548 -14.362427809077294, 15.153541275117604 -13.45222393285079, 15.707180851999931 -11.88604673600108, 17.60972818926786 -11.085264073427924, 18.653527267633887 -13.499556655585327, 16.544720312721548 -14.362427809077294), (8.59171036791558 -0.9248577439374279, 8.411727058433057 -0.6105609779779054, 8.356482226543802 0.7027373789455059, 8.404105687648965 1.180015748673229, 9.761853827813775 1.2224930809062247, 10.089807589539989 0.8093537705630329, 8.59171036791558 -0.9248577439374279), (-4.370188288681696 11.513898065387867, -5.026464494958314 11.864065954213316, -4.916876584168163 13.723708061009882, -4.496909460256694 13.915982349628278, -2.253718005585716 12.364384429018687, -3.706040786852344 11.649257633832695, -4.370188288681696 11.513898065387867), (-12.9289875520697 1.3757590302446516, -12.389087744957031 5.578003822545355, -10.966295475388637 4.152450616732619, -10.912807378694572 2.1416519442482524, -12.9289875520697 1.3757590302446516), (14.464111345059779 -1.0108678987318782, 13.722412179970425 -0.191030347051086, 14.090282220695874 0.7538404537394447, 14.705768018466037 0.9798085965415273, 15.538424169114542 1.190210715626875, 15.74908852887418 0.0159442718981287, 15.38061552551015 -0.5237704407312986, 14.464111345059779 -1.0108678987318782), (-2.4963952992869283 3.8456525632334877, -2.988351708789764 5.232518607908157, -2.674756926996871 5.579469897219351, -2.0865909220275323 5.976396903590091, -1.3500694089719691 5.813191942165589, -0.6928182865600323 5.401029897452936, -2.4963952992869283 3.8456525632334877), (-10.343947752415918 12.654715430195077, -11.773225524169382 13.96010317452766, -11.325980106245082 15.98232048182023, -8.835135723745971 14.794978144316493, -10.343947752415918 12.654715430195077), (-13.627467618798166 -13.953611840898036, -15.009353684523118 -13.343113868524828, -16.055356973825425 -11.399294372191033, -15.718865041847971 -10.817117826327403, -12.809906086832981 -13.419447435095964, -13.627467618798166 -13.953611840898036), (31.308948350907603 0.2802082129102843, 30.29441873646224 0.8801923710610815, 29.739283292132487 2.0244807635982167, 32.883113263680464 1.8933207351459438, 31.308948350907603 0.2802082129102843), (10.31796057581347 4.904499058127773, 9.888958412397308 6.03541611289326, 10.01935115794948 6.978981819005417, 10.862775501052102 7.476580102630357, 11.891713253652497 7.232298237185347, 10.31796057581347 4.904499058127773), (-21.791176379903032 14.56381569198641, -23.219358378017823 14.626909394211628, -23.291832456934735 17.719304784560848, -20.723838412988506 16.961275382775074, -20.5077654992632 15.886370938975006, -21.791176379903032 14.56381569198641), (-5.35643095112931 1.6059171506176773, -7.5811553733463235 2.3280651992797927, -7.79076093523378 2.49813690788328, -7.358948180406404 2.842167143016072, -5.890272178044527 2.854504185769543, -5.35643095112931 1.6059171506176773), (4.282778041644794 -10.784236953707623, 0.7984546454554509 -9.624227734288285, 0.784966264007898 -8.411773338701751, 3.038437933618269 -6.094746353778364, 5.979961570009877 -7.299700475546028, 4.282778041644794 -10.784236953707623), (22.222432539115584 12.310276945282816, 19.930097453632982 13.350178675929127, 24.055706993478218 14.689036366532461, 22.222432539115584 12.310276945282816), (1.7464420717521025 -15.628776838271031, 1.575045496013828 -15.030171858192325, 1.4384205233984428 -12.187383615463549, 2.3283131074259016 -11.639370179508433, 1.7464420717521025 -15.628776838271031), (32.23039671872683 7.855880539665422, 29.95266614846158 9.609850928344166, 29.854223660638926 9.911190100240876, 31.11993093257801 10.10083815168742, 32.23039671872683 7.855880539665422), (-24.456923165233725 -18.45438935296748, -25.104276267144567 -17.193390827117945, -24.312518000396942 -16.538664832708932, -22.081692997855505 -17.896371828035647, -22.302113591747396 -18.170232377077124, -24.456923165233725 -18.45438935296748), (-9.354889716001647 -15.628457600523296, -10.841833825103597 -13.155812114457085, -10.299047223402974 -12.681554157887867, -8.121092077255163 -13.99041264693215, -9.354889716001647 -15.628457600523296), (13.6438295907647 -21.7617611454141, 12.65248752199817 -21.71927624472176, 12.431515100564118 -19.876866154292507, 15.168904198733706 -20.350062615119885, 14.715957039728417 -21.61284624946994, 13.6438295907647 -21.7617611454141), (1.9709208563500726 -0.0227576375952276, 0.8774104089917625 2.554366905804807, 2.1293206353729266 2.456250607421908, 2.426245029482975 1.9756045078312772, 2.735307590657351 -0.010860840168782, 1.9709208563500726 -0.0227576375952276), (27.514155578520942 10.499333096548902, 25.078736395200917 11.540032354382067, 24.823231292179724 12.881216800583758, 28.17462255528754 12.43425711588415, 27.903352776358087 10.833095025912387, 27.514155578520942 10.499333096548902), (33.088321016055204 -17.570566245841846, 32.845661428998575 -14.697216497952727, 34.45706737673992 -15.033822017878238, 34.849098223322805 -15.72868118272552, 34.569387545445 -16.68459567887818, 33.088321016055204 -17.570566245841846))